GLOBALSTAR M045         
1 25676U 99019A   26010.92388722 -.00000092  00000+0  16105-4 0  9992
2 25676  51.9978  73.1701 0000436 157.1828  13.9968 12.27070967218896
GLOBALSTAR M019         
1 25677U 99019B   26010.86164748 -.00000149  00000+0 -61211-3 0  9997
2 25677  51.9857 218.3309 0002171  50.1873  54.7065 12.13881761210362
GLOBALSTAR M044         
1 25678U 99019C   26010.96630312 -.00000064  00000+0  27173-3 0  9998
2 25678  51.9935 195.3908 0007243  81.3993  86.5858 11.90263922196063
GLOBALSTAR M042         
1 25679U 99019D   26010.81797280 -.00000065  00000+0  25800-3 0  9997
2 25679  51.9992 184.8010 0003277  29.9569  78.0937 12.22095958210647
GLOBALSTAR M025         
1 25770U 99031A   26010.80744992 -.00000063  00000+0  14460-3 0  9992
2 25770  51.9839  38.3018 0002423 131.5809  39.2791 11.22560344505020
GLOBALSTAR M049         
1 25771U 99031B   26010.43564457 -.00000070  00000+0 -14998-3 0  9993
2 25771  51.9884  84.3409 0002537  21.1273 338.9628 11.12124395140485
GLOBALSTAR M047         
1 25772U 99031C   26010.84847847 -.00000079  00000+0 -25244-3 0  9991
2 25772  51.9845  60.5350 0016213 257.9684 101.9305 11.31931934494629
GLOBALSTAR M052         
1 25773U 99031D   26010.86454065 -.00000020  00000+0  15469-2 0  9992
2 25773  51.9828 189.1233 0003400 135.0297   9.7673 11.15063448501674
